{"type": "FeatureCollection", "features": [ {"type": "Feature", "properties": {"norad_id": 34468, "name": "COSMOS 2251 DEB", "group": "cosmos-2251-debris", "lat": -40.06961380422646, "lon": -63.753795271917575, "alt_km": 689.7235795604411, "timestamp": "2025-12-20T16:47:36.679200+00:00", "meta": {"OBJECT_NAME": "COSMOS 2251 DEB", "OBJECT_ID": "1993-036TM", "EPOCH": "2025-12-20T10:47:26.215008", "MEAN_MOTION": 14.47643751, "ECCENTRICITY": 0.0076315, "INCLINATION": 74.0131, "RA_OF_ASC_NODE": 102.7601, "ARG_OF_PERICENTER": 246.1206, "MEAN_ANOMALY": 113.1944, "EPHEMERIS_TYPE": 0, "CLASSIFICATION_TYPE": "U", "NORAD_CAT_ID": 34468, "ELEMENT_SET_NO": 999, "REV_AT_EPOCH": 88573, "BSTAR": 0.00025436, "MEAN_MOTION_DOT": 9.43e-06, "MEAN_MOTION_DDOT": 0}, "tle": {"line1": "1 34468U 93036TM  25354.44960897  .00000943  00000+0  25436-3 0  9990", "line2": "2 34468  74.0131 102.7601 0076315 246.1206 113.1944 14.47643751885739"}}, "geometry": {"type": "Point", "coordinates": [-63.753795271917575, -40.06961380422646]}}, {"type": "Feature", "properties": {"norad_id": 34472, "name": "COSMOS 2251 DEB", "group": "cosmos-2251-debris", "lat": -11.268716811737873, "lon": -91.6871237432643, "alt_km": 777.9658971075269, "timestamp": "2025-12-20T16:47:36.679210+00:00", "meta": {"OBJECT_NAME": "COSMOS 2251 DEB", "OBJECT_ID": "1993-036TR", "EPOCH": "2025-12-20T07:05:01.163904", "MEAN_MOTION": 13.70341623, "ECCENTRICITY": 0.0327856, "INCLINATION": 74.0845, "RA_OF_ASC_NODE": 85.7189, "ARG_OF_PERICENTER": 215.0848, "MEAN_ANOMALY": 142.8284, "EPHEMERIS_TYPE": 0, "CLASSIFICATION_TYPE": "U", "NORAD_CAT_ID": 34472, "ELEMENT_SET_NO": 999, "REV_AT_EPOCH": 83830, "BSTAR": 0.00049977, "MEAN_MOTION_DOT": 6.22e-06, "MEAN_MOTION_DDOT": 0}, "tle": {"line1": "1 34472U 93036TR  25354.29515236  .00000622  00000+0  49977-3 0  9991", "line2": "2 34472  74.0845  85.7189 0327856 215.0848 142.8284 13.70341623838308"}}, "geometry": {"type": "Point", "coordinates": [-91.6871237432643, -11.268716811737873]}}, {"type": "Feature", "properties": {"norad_id": 34474, "name": "COSMOS 2251 DEB", "group": "cosmos-2251-debris", "lat": -71.9614972151817, "lon": -108.94281773893528, "alt_km": 914.4575818347248, "timestamp": "2025-12-20T16:47:36.679220+00:00", "meta": {"OBJECT_NAME": "COSMOS 2251 DEB", "OBJECT_ID": "1993-036TT", "EPOCH": "2025-12-20T07:30:43.722720", "MEAN_MOTION": 14.06468022, "ECCENTRICITY": 0.0198999, "INCLINATION": 74.0783, "RA_OF_ASC_NODE": 312.9562, "ARG_OF_PERICENTER": 24.922, "MEAN_ANOMALY": 98.5475, "EPHEMERIS_TYPE": 0, "CLASSIFICATION_TYPE": "U", "NORAD_CAT_ID": 34474, "ELEMENT_SET_NO": 999, "REV_AT_EPOCH": 85615, "BSTAR": 0.0017903, "MEAN_MOTION_DOT": 3.519e-05, "MEAN_MOTION_DDOT": 0}, "tle": {"line1": "1 34474U 93036TT  25354.31300605  .00003519  00000+0  17903-2 0  9999", "line2": "2 34474  74.0783 312.9562 0198999  24.9220  98.5475 14.06468022856151"}}, "geometry": {"type": "Point", "coordinates": [-108.94281773893528, -71.9614972151817]}}, {"type": "Feature", "properties": {"norad_id": 34476, "name": "COSMOS 2251 DEB", "group": "cosmos-2251-debris", "lat": -73.54339905043443, "lon": -7.07714417974684, "alt_km": 733.2293775111575, "timestamp": "2025-12-20T16:47:36.679230+00:00", "meta": {"OBJECT_NAME": "COSMOS 2251 DEB", "OBJECT_ID": "1993-036TV", "EPOCH": "2025-12-19T15:07:53.916960", "MEAN_MOTION": 13.82094314, "ECCENTRICITY": 0.0321638, "INCLINATION": 74.0055, "RA_OF_ASC_NODE": 70.8879, "ARG_OF_PERICENTER": 289.0132, "MEAN_ANOMALY": 67.6405, "EPHEMERIS_TYPE": 0, "CLASSIFICATION_TYPE": "U", "NORAD_CAT_ID": 34476, "ELEMENT_SET_NO": 999, "REV_AT_EPOCH": 83733, "BSTAR": 0.0025746, "MEAN_MOTION_DOT": 4.089e-05, "MEAN_MOTION_DDOT": 0}, "tle": {"line1": "1 34476U 93036TV  25353.63048515  .00004089  00000+0  25746-2 0  9991", "line2": "2 34476  74.0055  70.8879 0321638 289.0132  67.6405 13.82094314837331"}}, "geometry": {"type": "Point", "coordinates": [-7.07714417974684, -73.54339905043443]}}, {"type": "Feature", "properties": {"norad_id": 34477, "name": "COSMOS 2251 DEB", "group": "cosmos-2251-debris", "lat": 28.226099689439675, "lon": -134.53934546487093, "alt_km": 700.7315864927159, "timestamp": "2025-12-20T16:47:36.679240+00:00", "meta": {"OBJECT_NAME": "COSMOS 2251 DEB", "OBJECT_ID": "1993-036TW", "EPOCH": "2025-12-20T04:51:00.824832", "MEAN_MOTION": 14.56911649, "ECCENTRICITY": 0.0076825, "INCLINATION": 73.9789, "RA_OF_ASC_NODE": 55.281, "ARG_OF_PERICENTER": 241.062, "MEAN_ANOMALY": 181.2592, "EPHEMERIS_TYPE": 0, "CLASSIFICATION_TYPE": "U", "NORAD_CAT_ID": 34477, "ELEMENT_SET_NO": 999, "REV_AT_EPOCH": 88734, "BSTAR": 0.00052138, "MEAN_MOTION_DOT": 2.404e-05, "MEAN_MOTION_DDOT": 0}, "tle": {"line1": "1 34477U 93036TW  25354.20209288  .00002404  00000+0  52138-3 0  9997", "line2": "2 34477  73.9789  55.2810 0076825 241.0620 181.2592 14.56911649887348"}}, "geometry": {"type": "Point", "coordinates": [-134.53934546487093, 28.226099689439675]}}, {"type": "Feature", "properties": {"norad_id": 34478, "name": "COSMOS 2251 DEB", "group": "cosmos-2251-debris", "lat": 57.71352819813219, "lon": 17.433065495143374, "alt_km": 554.6696250409286, "timestamp": "2025-12-20T16:47:36.679251+00:00", "meta": {"OBJECT_NAME": "COSMOS 2251 DEB", "OBJECT_ID": "1993-036TX", "EPOCH": "2025-12-19T04:27:46.708992", "MEAN_MOTION": 15.08510334, "ECCENTRICITY": 0.0034275, "INCLINATION": 74.0409, "RA_OF_ASC_NODE": 353.6176, "ARG_OF_PERICENTER": 213.3529, "MEAN_ANOMALY": 270.9757, "EPHEMERIS_TYPE": 0, "CLASSIFICATION_TYPE": "U", "NORAD_CAT_ID": 34478, "ELEMENT_SET_NO": 999, "REV_AT_EPOCH": 89070, "BSTAR": 0.0020795, "MEAN_MOTION_DOT": 0.00033001, "MEAN_MOTION_DDOT": 0}, "tle": {"line1": "1 34478U 93036TX  25353.18595728  .00033001  00000+0  20795-2 0  9991", "line2": "2 34478  74.0409 353.6176 0034275 213.3529 270.9757 15.08510334890700"}}, "geometry": {"type": "Point", "coordinates": [17.433065495143374, 57.71352819813219]}}, {"type": "Feature", "properties": {"norad_id": 34481, "name": "COSMOS 2251 DEB", "group": "cosmos-2251-debris", "lat": 7.89675749071631, "lon": 41.157914282195016, "alt_km": 830.9148002770571, "timestamp": "2025-12-20T16:47:36.679261+00:00", "meta": {"OBJECT_NAME": "COSMOS 2251 DEB", "OBJECT_ID": "1993-036UA", "EPOCH": "2025-12-19T22:37:11.351136", "MEAN_MOTION": 14.32574731, "ECCENTRICITY": 0.0070466, "INCLINATION": 73.9794, "RA_OF_ASC_NODE": 40.2607, "ARG_OF_PERICENTER": 213.2801, "MEAN_ANOMALY": 211.0067, "EPHEMERIS_TYPE": 0, "CLASSIFICATION_TYPE": "U", "NORAD_CAT_ID": 34481, "ELEMENT_SET_NO": 999, "REV_AT_EPOCH": 87552, "BSTAR": 0.00044504, "MEAN_MOTION_DOT": 1.215e-05, "MEAN_MOTION_DDOT": 0}, "tle": {"line1": "1 34481U 93036UA  25353.94249249  .00001215  00000+0  44504-3 0  9990", "line2": "2 34481  73.9794  40.2607 0070466 213.2801 211.0067 14.32574731875521"}}, "geometry": {"type": "Point", "coordinates": [41.157914282195016, 7.89675749071631]}}, {"type": "Feature", "properties": {"norad_id": 34482, "name": "COSMOS 2251 DEB", "group": "cosmos-2251-debris", "lat": 30.039194135371737, "lon": 18.65017045363468, "alt_km": 676.0416595883798, "timestamp": "2025-12-20T16:47:36.679270+00:00", "meta": {"OBJECT_NAME": "COSMOS 2251 DEB", "OBJECT_ID": "1993-036UB", "EPOCH": "2025-12-20T00:30:01.656000", "MEAN_MOTION": 14.69314639, "ECCENTRICITY": 0.00445961, "INCLINATION": 74.0359, "RA_OF_ASC_NODE": 209.4926, "ARG_OF_PERICENTER": 268.1232, "MEAN_ANOMALY": 251.3883, "EPHEMERIS_TYPE": 0, "CLASSIFICATION_TYPE": "U", "NORAD_CAT_ID": 34482, "ELEMENT_SET_NO": 999, "REV_AT_EPOCH": 88294, "BSTAR": 0.0010153192, "MEAN_MOTION_DOT": 6.059e-05, "MEAN_MOTION_DDOT": 0}, "tle": {"line1": "1 34482U 93036UB  25354.02085250  .00006059  00000+0  10153-2 0  9994", "line2": "2 34482  74.0359 209.4926 0044596 268.1232 251.3883 14.69314639882942"}}, "geometry": {"type": "Point", "coordinates": [18.65017045363468, 30.039194135371737]}}, {"type": "Feature", "properties": {"norad_id": 34544, "name": "COSMOS 2251 DEB", "group": "cosmos-2251-debris", "lat": -3.2852549570730885, "lon": -169.8060665841868, "alt_km": 1267.0057381582392, "timestamp": "2025-12-20T16:47:36.679281+00:00", "meta": {"OBJECT_NAME": "COSMOS 2251 DEB", "OBJECT_ID": "1993-036UE", "EPOCH": "2025-12-20T04:59:42.156384", "MEAN_MOTION": 13.54668603, "ECCENTRICITY": 0.03837722, "INCLINATION": 73.914, "RA_OF_ASC_NODE": 191.9386, "ARG_OF_PERICENTER": 219.0144, "MEAN_ANOMALY": 258.1342, "EPHEMERIS_TYPE": 0, "CLASSIFICATION_TYPE": "U", "NORAD_CAT_ID": 34544, "ELEMENT_SET_NO": 999, "REV_AT_EPOCH": 82983, "BSTAR": 0.00030520959, "MEAN_MOTION_DOT": 3.11e-06, "MEAN_MOTION_DDOT": 0}, "tle": {"line1": "1 34544U 93036UE  25354.20812681  .00000311  00000+0  30521-3 0  9996", "line2": "2 34544  73.9140 191.9386 0383772 219.0144 258.1342 13.54668603829831"}}, "geometry": {"type": "Point", "coordinates": [-169.8060665841868, -3.2852549570730885]}}, {"type": "Feature", "properties": {"norad_id": 34546, "name": "COSMOS 2251 DEB", "group": "cosmos-2251-debris", "lat": 20.783761040360858, "lon": -119.41583921516265, "alt_km": 735.968314689093, "timestamp": "2025-12-20T16:47:36.679291+00:00", "meta": {"OBJECT_NAME": "COSMOS 2251 DEB", "OBJECT_ID": "1993-036UG", "EPOCH": "2025-12-19T11:03:09.535392", "MEAN_MOTION": 14.45438225, "ECCENTRICITY": 0.0022033, "INCLINATION": 74.0308, "RA_OF_ASC_NODE": 236.6546, "ARG_OF_PERICENTER": 309.733, "MEAN_ANOMALY": 106.1055, "EPHEMERIS_TYPE": 0, "CLASSIFICATION_TYPE": "U", "NORAD_CAT_ID": 34546, "ELEMENT_SET_NO": 999, "REV_AT_EPOCH": 88123, "BSTAR": 0.00040131, "MEAN_MOTION_DOT": 1.39e-05, "MEAN_MOTION_DDOT": 0}, "tle": {"line1": "1 34546U 93036UG  25353.46052703  .00001390  00000+0  40131-3 0  9992", "line2": "2 34546  74.0308 236.6546 0022033 309.7330 106.1055 14.45438225881231"}}, "geometry": {"type": "Point", "coordinates": [-119.41583921516265, 20.783761040360858]}}]}